start=new Date('2022-07-10T00:00:00.000Z').valueOf();
sats=[{"RA_OF_ASC_NODE":"50.2907","DECAY_DATE":null,"BSTAR":"-0.00000549920000","SEMIMAJOR_AXIS":"6955.137","LAUNCH_DATE":"2021-09-14","CLASSIFICATION_TYPE":"U","MEAN_MOTION_DOT":"-0.00000155","EPHEMERIS_TYPE":"0","PERIOD":"96.210","INCLINATION":"69.9997","TLE_LINE2":"2 49157  69.9997  50.2907 0003019 249.4214 110.6621 14.96732764 47006","EPOCH":"2022-07-09T15:59:02.506272","GP_ID":"207784655","ARG_OF_PERICENTER":"249.4214","REV_AT_EPOCH":"4700","CENTER_NAME":"EARTH","PERIAPSIS":"574.902","REF_FRAME":"TEME","APOAPSIS":"579.101","OBJECT_ID":"2021-082AD","SITE":"AFWTR","OBJECT_NAME":"STARLINK-3051","OBJECT_TYPE":"PAYLOAD","TIME_SYSTEM":"UTC","MEAN_ELEMENT_THEORY":"SGP4","ECCENTRICITY":"0.00030190","TLE_LINE1":"1 49157U 21082AD  22190.66600123 -.00000155  00000-0 -54992-5 0  9994","MEAN_MOTION_DDOT":"0.0000000000000","RCS_SIZE":"LARGE","MEAN_MOTION":"14.96732764","COUNTRY_CODE":"US","FILE":"3510681","MEAN_ANOMALY":"110.6621","NORAD_CAT_ID":"49157","ELEMENT_SET_NO":"999"},{"NORAD_CAT_ID":"49158","ELEMENT_SET_NO":"999","RCS_SIZE":"LARGE","MEAN_MOTION_DDOT":"0.0000000000000","TLE_LINE1":"1 49158U 21082AE  22190.72774192  .00004847  00000-0  43023-3 0  9991","MEAN_ANOMALY":"96.7663","FILE":"3510681","COUNTRY_CODE":"US","MEAN_MOTION":"14.96804627","MEAN_ELEMENT_THEORY":"SGP4","ECCENTRICITY":"0.00026210","SITE":"AFWTR","OBJECT_ID":"2021-082AE","TIME_SYSTEM":"UTC","OBJECT_TYPE":"PAYLOAD","OBJECT_NAME":"STARLINK-3083","PERIAPSIS":"574.956","CENTER_NAME":"EARTH","REV_AT_EPOCH":"4701","APOAPSIS":"578.602","REF_FRAME":"TEME","EPOCH":"2022-07-09T17:27:56.901888","TLE_LINE2":"2 49158  70.0023  50.1352 0002621 263.3197  96.7663 14.96804627 47015","INCLINATION":"70.0023","PERIOD":"96.205","EPHEMERIS_TYPE":"0","ARG_OF_PERICENTER":"263.3197","GP_ID":"207784905","LAUNCH_DATE":"2021-09-14","SEMIMAJOR_AXIS":"6954.914","MEAN_MOTION_DOT":"0.00004847","CLASSIFICATION_TYPE":"U","RA_OF_ASC_NODE":"50.1352","BSTAR":"0.00043023000000","DECAY_DATE":null},{"EPHEMERIS_TYPE":"0","PERIOD":"96.107","INCLINATION":"70.0015","TLE_LINE2":"2 49159  70.0015  70.5561 0002926 254.5216 105.5620 14.98322873 46502","EPOCH":"2022-07-09T16:24:23.319936","GP_ID":"207786156","ARG_OF_PERICENTER":"254.5216","REV_AT_EPOCH":"4650","CENTER_NAME":"EARTH","PERIAPSIS":"570.046","REF_FRAME":"TEME","APOAPSIS":"574.114","RA_OF_ASC_NODE":"70.5561","DECAY_DATE":null,"BSTAR":"0.00004071900000","LAUNCH_DATE":"2021-09-14","SEMIMAJOR_AXIS":"6950.215","CLASSIFICATION_TYPE":"U","MEAN_MOTION_DOT":"0.00000393","TLE_LINE1":"1 49159U 21082AF  22190.68360324  .00000393  00000-0  40719-4 0  9997","MEAN_MOTION_DDOT":"0.0000000000000","RCS_SIZE":"LARGE","MEAN_MOTION":"14.98322873","COUNTRY_CODE":"US","FILE":"3510681","MEAN_ANOMALY":"105.5620","NORAD_CAT_ID":"49159","ELEMENT_SET_NO":"999","OBJECT_ID":"2021-082AF","SITE":"AFWTR","OBJECT_NAME":"STARLINK-3056","OBJECT_TYPE":"PAYLOAD","TIME_SYSTEM":"UTC","MEAN_ELEMENT_THEORY":"SGP4","ECCENTRICITY":"0.00029260"},{"MEAN_ELEMENT_THEORY":"SGP4","ECCENTRICITY":"0.00028860","OBJECT_ID":"2021-082AG","SITE":"AFWTR","OBJECT_TYPE":"PAYLOAD","TIME_SYSTEM":"UTC","OBJECT_NAME":"STARLINK-3095","NORAD_CAT_ID":"49160","ELEMENT_SET_NO":"999","MEAN_MOTION_DDOT":"0.0000000000000","RCS_SIZE":"LARGE","TLE_LINE1":"1 49160U 21082AG  22190.47376202  .00000193  00000-0  23999-4 0  9997","FILE":"3510582","MEAN_ANOMALY":"90.5843","MEAN_MOTION":"14.98342785","COUNTRY_CODE":"US","LAUNCH_DATE":"2021-09-14","SEMIMAJOR_AXIS":"6950.153","MEAN_MOTION_DOT":"0.00000193","CLASSIFICATION_TYPE":"U","RA_OF_ASC_NODE":"71.0891","BSTAR":"0.00002399900000","DECAY_DATE":null,"PERIAPSIS":"570.013","REV_AT_EPOCH":"4644","CENTER_NAME":"EARTH","REF_FRAME":"TEME","APOAPSIS":"574.024","INCLINATION":"69.9997","TLE_LINE2":"2 49160  69.9997  71.0891 0002886 269.4985  90.5843 14.98342785 46442","EPOCH":"2022-07-09T11:22:13.038528","EPHEMERIS_TYPE":"0","PERIOD":"96.106","ARG_OF_PERICENTER":"269.4985","GP_ID":"207733411"},{"DECAY_DATE":null,"BSTAR":"0.00007321900000","RA_OF_ASC_NODE":"70.5679","CLASSIFICATION_TYPE":"U","MEAN_MOTION_DOT":"0.00000781","SEMIMAJOR_AXIS":"6950.142","LAUNCH_DATE":"2021-09-14","GP_ID":"207785155","ARG_OF_PERICENTER":"256.6689","EPHEMERIS_TYPE":"0","PERIOD":"96.106","EPOCH":"2022-07-09T16:17:31.480512","TLE_LINE2":"2 49161  69.9997  70.5679 0003019 256.6689 103.4134 14.98346342 46483","INCLINATION":"69.9997","APOAPSIS":"574.106","REF_FRAME":"TEME","CENTER_NAME":"EARTH","REV_AT_EPOCH":"4648","PERIAPSIS":"569.909","OBJECT_NAME":"STARLINK-3080","TIME_SYSTEM":"UTC","OBJECT_TYPE":"PAYLOAD","OBJECT_ID":"2021-082AH","SITE":"AFWTR","ECCENTRICITY":"0.00030190","MEAN_ELEMENT_THEORY":"SGP4","COUNTRY_CODE":"US","MEAN_MOTION":"14.98346342","MEAN_ANOMALY":"103.4134","FILE":"3510681","TLE_LINE1":"1 49161U 21082AH  22190.67883658  .00000781  00000-0  73219-4 0  9991","RCS_SIZE":"LARGE","MEAN_MOTION_DDOT":"0.0000000000000","ELEMENT_SET_NO":"999","NORAD_CAT_ID":"49161"},{"REV_AT_EPOCH":"4652","CENTER_NAME":"EARTH","PERIAPSIS":"569.972","REF_FRAME":"TEME","APOAPSIS":"574.134","PERIOD":"96.107","EPHEMERIS_TYPE":"0","INCLINATION":"69.9997","TLE_LINE2":"2 49162  69.9997  71.2641 0002994 262.9975  97.0844 14.98331668 46526","EPOCH":"2022-07-09T09:39:14.137344","GP_ID":"207732909","ARG_OF_PERICENTER":"262.9975","SEMIMAJOR_AXIS":"6950.188","LAUNCH_DATE":"2021-09-14","CLASSIFICATION_TYPE":"U","MEAN_MOTION_DOT":"-0.00000953","RA_OF_ASC_NODE":"71.2641","DECAY_DATE":null,"BSTAR":"-0.00007212000000","NORAD_CAT_ID":"49162","ELEMENT_SET_NO":"999","TLE_LINE1":"1 49162U 21082AJ  22190.40224696 -.00000953  00000-0 -72120-4 0  9997","MEAN_MOTION_DDOT":"0.0000000000000","RCS_SIZE":"LARGE","MEAN_MOTION":"14.98331668","COUNTRY_CODE":"US","FILE":"3510582","MEAN_ANOMALY":"97.0844","MEAN_ELEMENT_THEORY":"SGP4","ECCENTRICITY":"0.00029940","SITE":"AFWTR","OBJECT_ID":"2021-082AJ","OBJECT_NAME":"STARLINK-3082","OBJECT_TYPE":"PAYLOAD","TIME_SYSTEM":"UTC"},{"FILE":"3510681","MEAN_ANOMALY":"107.2677","MEAN_MOTION":"14.96718361","COUNTRY_CODE":"US","MEAN_MOTION_DDOT":"0.0000000000000","RCS_SIZE":"LARGE","TLE_LINE1":"1 49163U 21082AK  22190.65628205  .00000622  00000-0  62334-4 0  9996","ELEMENT_SET_NO":"999","NORAD_CAT_ID":"49163","OBJECT_TYPE":"PAYLOAD","TIME_SYSTEM":"UTC","OBJECT_NAME":"STARLINK-3088","SITE":"AFWTR","OBJECT_ID":"2021-082AK","ECCENTRICITY":"0.00025870","MEAN_ELEMENT_THEORY":"SGP4","ARG_OF_PERICENTER":"252.8198","GP_ID":"207785657","INCLINATION":"70.0009","TLE_LINE2":"2 49163  70.0009  50.3242 0002587 252.8198 107.2677 14.96718361 47067","EPOCH":"2022-07-09T15:45:02.769120","PERIOD":"96.210","EPHEMERIS_TYPE":"0","REF_FRAME":"TEME","APOAPSIS":"578.846","PERIAPSIS":"575.247","REV_AT_EPOCH":"4706","CENTER_NAME":"EARTH","BSTAR":"0.00006233400000","DECAY_DATE":null,"RA_OF_ASC_NODE":"50.3242","MEAN_MOTION_DOT":"0.00000622","CLASSIFICATION_TYPE":"U","LAUNCH_DATE":"2021-09-14","SEMIMAJOR_AXIS":"6955.181"},{"MEAN_ELEMENT_THEORY":"SGP4","ECCENTRICITY":"0.00026490","OBJECT_ID":"2021-082AL","SITE":"AFWTR","OBJECT_NAME":"STARLINK-3106","OBJECT_TYPE":"PAYLOAD","TIME_SYSTEM":"UTC","NORAD_CAT_ID":"49164","ELEMENT_SET_NO":"999","TLE_LINE1":"1 49164U 21082AL  22190.64656478 -.00000249  00000-0 -13752-4 0  9996","MEAN_MOTION_DDOT":"0.0000000000000","RCS_SIZE":"LARGE","COUNTRY_CODE":"US","MEAN_MOTION":"14.96722981","FILE":"3510681","MEAN_ANOMALY":"98.3861","LAUNCH_DATE":"2021-09-14","SEMIMAJOR_AXIS":"6955.167","CLASSIFICATION_TYPE":"U","MEAN_MOTION_DOT":"-0.00000249","RA_OF_ASC_NODE":"50.3355","DECAY_DATE":null,"BSTAR":"-0.00001375200000","REV_AT_EPOCH":"4707","CENTER_NAME":"EARTH","PERIAPSIS":"575.189","REF_FRAME":"TEME","APOAPSIS":"578.874","EPHEMERIS_TYPE":"0","PERIOD":"96.210","INCLINATION":"70.0001","TLE_LINE2":"2 49164  70.0001  50.3355 0002649 261.6996  98.3861 14.96722981 47077","EPOCH":"2022-07-09T15:31:03.196992","GP_ID":"207785908","ARG_OF_PERICENTER":"261.6996"},{"OBJECT_NAME":"STARLINK-3052","TIME_SYSTEM":"UTC","OBJECT_TYPE":"PAYLOAD","OBJECT_ID":"2021-082AM","SITE":"AFWTR","ECCENTRICITY":"0.00032280","MEAN_ELEMENT_THEORY":"SGP4","COUNTRY_CODE":"US","MEAN_MOTION":"14.98344912","MEAN_ANOMALY":"95.7376","FILE":"3510582","TLE_LINE1":"1 49165U 21082AM  22190.39746387  .00000677  00000-0  64510-4 0  9999","RCS_SIZE":"LARGE","MEAN_MOTION_DDOT":"0.0000000000000","ELEMENT_SET_NO":"999","NORAD_CAT_ID":"49165","DECAY_DATE":null,"BSTAR":"0.00006451000000","RA_OF_ASC_NODE":"71.2757","CLASSIFICATION_TYPE":"U","MEAN_MOTION_DOT":"0.00000677","SEMIMAJOR_AXIS":"6950.147","LAUNCH_DATE":"2021-09-14","GP_ID":"207733662","ARG_OF_PERICENTER":"264.3415","EPHEMERIS_TYPE":"0","PERIOD":"96.106","EPOCH":"2022-07-09T09:32:20.878368","INCLINATION":"69.9998","TLE_LINE2":"2 49165  69.9998  71.2757 0003228 264.3415  95.7376 14.98344912 46569","APOAPSIS":"574.255","REF_FRAME":"TEME","CENTER_NAME":"EARTH","REV_AT_EPOCH":"4656","PERIAPSIS":"569.768"},{"REF_FRAME":"TEME","APOAPSIS":"578.966","REV_AT_EPOCH":"4710","CENTER_NAME":"EARTH","PERIAPSIS":"575.118","GP_ID":"207784906","ARG_OF_PERICENTER":"253.1073","PERIOD":"96.210","EPHEMERIS_TYPE":"0","TLE_LINE2":"2 49166  69.9993  50.3222 0002766 253.1073 106.9782 14.96719770 47105","INCLINATION":"69.9993","EPOCH":"2022-07-09T15:38:04.557696","CLASSIFICATION_TYPE":"U","MEAN_MOTION_DOT":"-0.00000086","LAUNCH_DATE":"2021-09-14","SEMIMAJOR_AXIS":"6955.177","DECAY_DATE":null,"BSTAR":"0.00000047557000","RA_OF_ASC_NODE":"50.3222","ELEMENT_SET_NO":"999","NORAD_CAT_ID":"49166","COUNTRY_CODE":"US","MEAN_MOTION":"14.96719770","FILE":"3510681","MEAN_ANOMALY":"106.9782","TLE_LINE1":"1 49166U 21082AN  22190.65144164 -.00000086  00000-0  47557-6 0  9993","MEAN_MOTION_DDOT":"0.0000000000000","RCS_SIZE":"LARGE","ECCENTRICITY":"0.00027660","MEAN_ELEMENT_THEORY":"SGP4","OBJECT_NAME":"STARLINK-3089","OBJECT_TYPE":"PAYLOAD","TIME_SYSTEM":"UTC","OBJECT_ID":"2021-082AN","SITE":"AFWTR"}];
